GLOBALSTAR M024         
1 25883U 99043A   24305.57087017 -.00000053  00000+0  41768-3 0  9997
2 25883  51.9983 176.4611 0002488  75.3369 289.0372 11.10159450 89470
GLOBALSTAR M027         
1 25884U 99043B   24305.31839845 -.00000101  00000+0 -14031-2 0  9991
2 25884  52.0205 248.5270 0021616 343.4644  16.5442 11.04370553115957
GLOBALSTAR M054         
1 25885U 99043C   24305.37643418 -.00000072  00000+0 -27231-4 0  9992
2 25885  52.0161  54.0911 0006621 144.9528 256.1917 11.39205356 92976
GLOBALSTAR M053         
1 25886U 99043D   24305.57740772 -.00000041  00000+0  79794-3 0  9991
2 25886  52.0017 348.0256 0003484  56.3491 100.2372 11.27659842 93654
GLOBALSTAR M058         
1 25907U 99049A   24305.53105261  .00000041  00000+0  16916-2 0  9990
2 25907  51.9972 359.7431 0002037 183.0928 176.9894 11.93189075514247
GLOBALSTAR M050         
1 25908U 99049B   24305.59055227 -.00000141  00000+0 -59700-3 0  9995
2 25908  52.0022  24.3361 0008565 296.0371 203.1178 12.07442675120573
GLOBALSTAR M033         
1 25909U 99049C   24305.41287072 -.00000017  00000+0  71711-3 0  9999
2 25909  51.9909 272.4615 0012659 151.7050 208.4487 12.20290522507818
GLOBALSTAR M055         
1 25910U 99049D   24305.72006261 -.00000048  00000+0  39760-3 0  9996
2 25910  52.0023 293.4643 0007402  19.0285 341.0842 12.29412890140409
